{
  "norad_id": 38711,
  "name": "MKA-PN 1",
  "history": [
    {
      "epoch": "2026-04-11T20:29:41.974656Z",
      "apogee_km": 815.2893365678092,
      "perigee_km": 798.9744650016873,
      "latitude_deg": -1.0794215856497538e-05,
      "longitude_deg": 69.92422926043525,
      "height_km": 801.9205000520694,
      "semi_major_axis_km": 7185.2689007847475,
      "eccentricity": 0.0011353,
      "inclination_deg": 98.9622,
      "raan_deg": 217.4166,
      "arg_perigee_deg": 5.3582,
      "mean_anomaly_deg": 354.7716,
      "mean_motion_rev_day": 14.25404821
    },
    {
      "epoch": "2026-04-13T06:11:18.700512Z",
      "apogee_km": 815.2366923284953,
      "perigee_km": 799.0247165123656,
      "latitude_deg": 1.7091034360361767e-05,
      "longitude_deg": -75.42824441097572,
      "height_km": 801.9385497341104,
      "semi_major_axis_km": 7185.26770442043,
      "eccentricity": 0.00112814,
      "inclination_deg": 98.9625,
      "raan_deg": 218.8509,
      "arg_perigee_deg": 1.3353,
      "mean_anomaly_deg": 358.7854,
      "mean_motion_rev_day": 14.25405177
    },
    {
      "epoch": "2026-04-14T19:15:05.058432Z",
      "apogee_km": 815.1749148880435,
      "perigee_km": 799.084228926914,
      "latitude_deg": -1.2982056025677753e-05,
      "longitude_deg": 88.6842856737856,
      "height_km": 802.0093613281956,
      "semi_major_axis_km": 7185.2665719074785,
      "eccentricity": 0.0011197,
      "inclination_deg": 98.9627,
      "raan_deg": 220.4287,
      "arg_perigee_deg": 356.8425,
      "mean_anomaly_deg": 3.2681,
      "mean_motion_rev_day": 14.25405514
    },
    {
      "epoch": "2026-04-15T20:31:17.556384Z",
      "apogee_km": 815.1360221749501,
      "perigee_km": 799.1215018445819,
      "latitude_deg": 3.321462983285207e-05,
      "longitude_deg": 69.67019793286639,
      "height_km": 802.0829473570549,
      "semi_major_axis_km": 7185.265762009765,
      "eccentricity": 0.0011144,
      "inclination_deg": 98.9629,
      "raan_deg": 221.5045,
      "arg_perigee_deg": 353.7416,
      "mean_anomaly_deg": 6.3622,
      "mean_motion_rev_day": 14.25405755
    },
    {
      "epoch": "2026-04-16T18:25:20.383392Z",
      "apogee_km": 815.0992244927857,
      "perigee_km": 799.1565587512541,
      "latitude_deg": -4.2084749109371355e-05,
      "longitude_deg": 101.19149899617969,
      "height_km": 802.1677480850542,
      "semi_major_axis_km": 7185.26489162202,
      "eccentricity": 0.0011094,
      "inclination_deg": 98.9631,
      "raan_deg": 222.437,
      "arg_perigee_deg": 351.0617,
      "mean_anomaly_deg": 9.0362,
      "mean_motion_rev_day": 14.25406014
    },
    {
      "epoch": "2026-04-17T21:22:37.696512Z",
      "apogee_km": 815.0578328176944,
      "perigee_km": 799.1960752286295,
      "latitude_deg": 8.13951494662184e-06,
      "longitude_deg": 56.90985990841374,
      "height_km": 802.291429784497,
      "semi_major_axis_km": 7185.263954023161,
      "eccentricity": 0.00110377,
      "inclination_deg": 98.9632,
      "raan_deg": 223.5845,
      "arg_perigee_deg": 347.7621,
      "mean_anomaly_deg": 12.3288,
      "mean_motion_rev_day": 14.25406293
    },
    {
      "epoch": "2026-04-18T14:13:25.996800Z",
      "apogee_km": 815.0292688866366,
      "perigee_km": 799.2231269039066,
      "latitude_deg": -5.425453653290316e-05,
      "longitude_deg": 164.23404717778794,
      "height_km": 802.3855353133084,
      "semi_major_axis_km": 7185.263197895271,
      "eccentricity": 0.0010999,
      "inclination_deg": 98.9633,
      "raan_deg": 224.3018,
      "arg_perigee_deg": 345.6428,
      "mean_anomaly_deg": 14.4436,
      "mean_motion_rev_day": 14.25406518
    },
    {
      "epoch": "2026-04-19T13:48:33.613056Z",
      "apogee_km": 814.9932301278868,
      "perigee_km": 799.2575055423276,
      "latitude_deg": -1.988230114037287e-05,
      "longitude_deg": 170.48778668784632,
      "height_km": 802.5292371524865,
      "semi_major_axis_km": 7185.2623678351065,
      "eccentricity": 0.001095,
      "inclination_deg": 98.9635,
      "raan_deg": 225.3059,
      "arg_perigee_deg": 342.7088,
      "mean_anomaly_deg": 17.3716,
      "mean_motion_rev_day": 14.25406765
    },
    {
      "epoch": "2026-04-20T13:23:41.211168Z",
      "apogee_km": 814.9601195568985,
      "perigee_km": 799.2886333791394,
      "latitude_deg": -2.5406136516240122e-05,
      "longitude_deg": 176.74170722301434,
      "height_km": 802.6930098710365,
      "semi_major_axis_km": 7185.261376468019,
      "eccentricity": 0.00109053,
      "inclination_deg": 98.9637,
      "raan_deg": 226.3101,
      "arg_perigee_deg": 339.6791,
      "mean_anomaly_deg": 20.3952,
      "mean_motion_rev_day": 14.2540706
    },
    {
      "epoch": "2026-04-21T07:55:34.313664Z",
      "apogee_km": 814.9317255572905,
      "perigee_km": 799.3148497325055,
      "latitude_deg": -4.0833744692422555e-05,
      "longitude_deg": -101.20161086622704,
      "height_km": 802.8323688806897,
      "semi_major_axis_km": 7185.260287644898,
      "eccentricity": 0.00108673,
      "inclination_deg": 98.9638,
      "raan_deg": 227.0991,
      "arg_perigee_deg": 337.3841,
      "mean_anomaly_deg": 22.6857,
      "mean_motion_rev_day": 14.25407384
    },
    {
      "epoch": "2026-04-22T19:18:15.668064Z",
      "apogee_km": 814.8798607722192,
      "perigee_km": 799.3640126243126,
      "latitude_deg": -2.4247652394884392e-05,
      "longitude_deg": 88.17954366624525,
      "height_km": 803.1319972414473,
      "semi_major_axis_km": 7185.258936698266,
      "eccentricity": 0.0010797,
      "inclination_deg": 98.9641,
      "raan_deg": 228.6055,
      "arg_perigee_deg": 332.9238,
      "mean_anomaly_deg": 27.1376,
      "mean_motion_rev_day": 14.25407786
    },
    {
      "epoch": "2026-04-23T13:50:08.738592Z",
      "apogee_km": 814.8579363904637,
      "perigee_km": 799.384626386659,
      "latitude_deg": -2.6433734232878187e-05,
      "longitude_deg": 170.23635740650568,
      "height_km": 803.3043512096626,
      "semi_major_axis_km": 7185.258281388561,
      "eccentricity": 0.00107674,
      "inclination_deg": 98.9642,
      "raan_deg": 229.3945,
      "arg_perigee_deg": 330.5201,
      "mean_anomaly_deg": 29.5369,
      "mean_motion_rev_day": 14.25407981
    },
    {
      "epoch": "2026-04-24T20:09:35.563680Z",
      "apogee_km": 814.816488348978,
      "perigee_km": 799.4227945203693,
      "latitude_deg": -7.68827047620319e-05,
      "longitude_deg": 75.42032533517711,
      "height_km": 803.6086185083394,
      "semi_major_axis_km": 7185.256641434674,
      "eccentricity": 0.0010712,
      "inclination_deg": 98.9644,
      "raan_deg": 230.6856,
      "arg_perigee_deg": 326.6518,
      "mean_anomaly_deg": 33.3984,
      "mean_motion_rev_day": 14.25408469
    },
    {
      "epoch": "2026-04-25T19:44:43.065888Z",
      "apogee_km": 814.7881501789943,
      "perigee_km": 799.447630987599,
      "latitude_deg": 1.9584257852530215e-05,
      "longitude_deg": 81.67473213745232,
      "height_km": 803.857981222923,
      "semi_major_axis_km": 7185.254890583296,
      "eccentricity": 0.0010675,
      "inclination_deg": 98.9645,
      "raan_deg": 231.6899,
      "arg_perigee_deg": 323.6626,
      "mean_anomaly_deg": 36.3827,
      "mean_motion_rev_day": 14.2540899
    },
    {
      "epoch": "2026-04-26T22:42:00.183744Z",
      "apogee_km": 814.7578075796973,
      "perigee_km": 799.475204487574,
      "latitude_deg": 8.47572726122723e-05,
      "longitude_deg": 37.39410557495366,
      "height_km": 804.1675609118834,
      "semi_major_axis_km": 7185.253506033635,
      "eccentricity": 0.00106347,
      "inclination_deg": 98.9646,
      "raan_deg": 232.8376,
      "arg_perigee_deg": 320.1693,
      "mean_anomaly_deg": 39.8705,
      "mean_motion_rev_day": 14.25409402
    },
    {
      "epoch": "2026-04-27T18:54:57.997728Z",
      "apogee_km": 814.7357258740658,
      "perigee_km": 799.4943692307979,
      "latitude_deg": -1.1408507914379876e-05,
      "longitude_deg": 94.1838856828159,
      "height_km": 804.4134091792777,
      "semi_major_axis_km": 7185.252047552432,
      "eccentricity": 0.0010606,
      "inclination_deg": 98.9648,
      "raan_deg": 233.6985,
      "arg_perigee_deg": 317.5269,
      "mean_anomaly_deg": 42.5088,
      "mean_motion_rev_day": 14.25409836
    },
    {
      "epoch": "2026-04-28T20:11:10.248576Z",
      "apogee_km": 814.7075761323049,
      "perigee_km": 799.5193936573341,
      "latitude_deg": -9.393051130313477e-06,
      "longitude_deg": 75.17103605173814,
      "height_km": 804.7354462005017,
      "semi_major_axis_km": 7185.250484894819,
      "eccentricity": 0.0010569,
      "inclination_deg": 98.9649,
      "raan_deg": 234.7745,
      "arg_perigee_deg": 314.2344,
      "mean_anomaly_deg": 45.7966,
      "mean_motion_rev_day": 14.25410301
    },
    {
      "epoch": "2026-04-29T19:46:17.671296Z",
      "apogee_km": 814.6810383854954,
      "perigee_km": 799.5431555879641,
      "latitude_deg": -3.7989296601802776e-06,
      "longitude_deg": 81.42578973400092,
      "height_km": 805.0436182399222,
      "semi_major_axis_km": 7185.2490969867295,
      "eccentricity": 0.0010534,
      "inclination_deg": 98.9651,
      "raan_deg": 235.7788,
      "arg_perigee_deg": 311.2266,
      "mean_anomaly_deg": 48.8004,
      "mean_motion_rev_day": 14.25410714
    },
    {
      "epoch": "2026-04-30T14:18:10.626048Z",
      "apogee_km": 814.6646246079199,
      "perigee_km": 799.5576404093208,
      "latitude_deg": 8.638887877377735e-05,
      "longitude_deg": 163.4832739646455,
      "height_km": 805.2980250888312,
      "semi_major_axis_km": 7185.24813250862,
      "eccentricity": 0.00105125,
      "inclination_deg": 98.9652,
      "raan_deg": 236.568,
      "arg_perigee_deg": 308.7994,
      "mean_anomaly_deg": 51.2246,
      "mean_motion_rev_day": 14.25411001
    }
  ]
}